PROMETHEUS 2-1          
1 41854U 16067G   25130.85431148  .00041485  00000+0  85335-3 0  9995
2 41854  98.0804 340.7786 0005661   7.9156 352.2179 15.45837245465811
PROMETHEUS 2-3          
1 41855U 16067H   25130.53991481  .00045647  00000+0  93970-3 0  9990
2 41855  98.0755 339.6174 0004963  21.1297 339.0154 15.45795923465769
CORVUS BC2              
1 42846U 17042X   25130.94742777  .00003754  00000+0  28443-3 0  9998
2 42846  97.3733 304.9671 0015239  52.5716 307.6894 15.02750752426580
CORVUS BC1              
1 42847U 17042Y   25130.87006277  .00003495  00000+0  26355-3 0  9991
2 42847  97.3764 305.4056 0013774  33.0446 327.1637 15.02989976426599
MIRATA                  
1 43015U 17073C   25130.93369671  .00053828  00000+0  97665-3 0  9997
2 43015  97.5439  24.5369 0087687 191.2179 168.7117 15.45173656406225
MAKERSAT 0              
1 43016U 17073D   25130.62426342  .00013671  00000+0  56216-3 0  9992
2 43016  97.5239   9.1137 0147543 243.6460 114.9560 15.14784118405208
SIRION PATHFINDER-2     
1 43759U 18099B   25130.88879553  .00005832  00000+0  36655-3 0  9994
2 43759  97.4800 184.5299 0008385 241.7276 118.3108 15.09594049351837
CORVUS BC4              
1 43767U 18099K   25130.69203776  .00005276  00000+0  34559-3 0  9993
2 43767  97.4611 180.2951 0007751 311.8317  48.2249 15.08115213351653
MOVE-II                 
1 43780U 18099Y   25131.15204054  .00144879  00000+0  14542-2 0  9992
2 43780  97.4688 204.7897 0006031 216.9316 143.1529 15.65007501353186
SPACEBEE-7              
1 43816U 18099BL  25131.14284332  .00028098  00000+0  83821-3 0  9999
2 43816  97.4977 200.8580 0006691 204.0236 156.0696 15.34587783352283
SHIELDS 1               
1 43850U 18104B   25130.80605029  .00031751  00000+0  40285-3 0  9993
2 43850  85.0166  57.4841 0003203 245.9685 114.1242 15.59274641356816
SONATE                  
1 44400U 19038Q   25130.57023294  .00171084  00000+0  85679-3 0  9994
2 44400  97.6936 153.7767 0002634  37.3011 322.8439 15.81308951324810
DUCHIFAT-3              
1 44854U 19089C   25131.22682738  .00035860  00000+0  76056-3 0  9990
2 44854  36.9431 181.4836 0000409  63.2979 296.7819 15.44142636298404
M2 PATHFINDER           
1 45727U 20037E   25130.49611558  .00003638  00000+0  28141-3 0  9995
2 45727  97.8165 312.9299 0015009  79.2350 281.0563 15.02042118264998
NETSAT-4                
1 46504U 20068U   25131.17852859  .00013598  00000+0  47583-3 0  9997
2 46504  97.8437 107.3672 0005602 320.8461  39.2372 15.29634758254054
NETSAT-3                
1 46505U 20068V   25130.88097764  .00013602  00000+0  49720-3 0  9992
2 46505  97.8435 106.0648 0005754 335.6292  24.4673 15.28203201253970
NETSAT-1                
1 46506U 20068W   25130.64572926  .00010353  00000+0  43503-3 0  9998
2 46506  97.8462 103.8573 0006041 353.3159   6.7996 15.23623572253807
NETSAT-2                
1 46507U 20068X   25130.89975868  .00013727  00000+0  48621-3 0  9992
2 46507  97.8435 106.5787 0005059 359.5702   0.5531 15.29240202253959
WILDTRACKCUBE-SIMBA     
1 47941U 21022K   25131.16327556  .00027541  00000+0  60922-3 0  9999
2 47941  97.4261  35.0683 0012382  66.9698 293.2854 15.43707019228654
GRBALPHA                
1 47959U 21022AD  25131.13201672  .00280109  00000+0  12693-2 0  9997
2 47959  97.4169  43.3092 0007296  94.3112 265.8991 15.83168989228018
LEDSAT                  
1 49069U 21073D   25131.16194920  .00057141  00000+0  78839-3 0  9990
2 49069  97.3907 211.5556 0011946 182.0871 178.0336 15.56934818206857
ROBUSTA-1F (MTCUBE 2)   
1 53109U 22080E   25130.24172268 -.00000003  00000+0  00000+0 0  9995
2 53109  70.1328  78.3689 0008639  14.5553 345.5355  6.42584206 66178
SITRO-AIS 5 (KATYS)     
1 57176U 23091L   25131.18481799  .00009472  00000+0  45143-3 0  9991
2 57176  97.5606 188.0963 0015656  76.1224 284.1751 15.19223047103119
SITRO-AIS 6 (CHIRKIN)   
1 57192U 23091AC  25131.17046510  .00010123  00000+0  48333-3 0  9995
2 57192  97.5605 188.0968 0015601  75.9547 284.3420 15.19139579103117
SITRO-AIS 8 (ANOKHIN)   
1 57193U 23091AD  25131.17048112  .00011499  00000+0  52766-3 0  9998
2 57193  97.5602 188.5405 0015030  76.0292 284.2613 15.20486820103143
SITRO-AIS 7 (FARTUSHNIY)
1 57194U 23091AE  25131.19025483  .00008654  00000+0  41488-3 0  9995
2 57194  97.5604 188.0603 0015476  76.5780 283.7178 15.19047155103111
SITRO-AIS 10 (BURDAEV)  
1 57199U 23091AK  25131.21515584  .00011905  00000+0  49765-3 0  9998
2 57199  97.5614 190.7545 0010587  64.2254 296.0074 15.23711469103281
SITRO-AIS 9 (SHCHUKIN)  
1 57201U 23091AM  25131.16372908  .00012429  00000+0  52207-3 0  9994
2 57201  97.5611 190.6264 0010543  64.4964 295.7362 15.23537839103273
SITRO-AIS 12 (SMIRENNIY)
1 57204U 23091AQ  25131.21540987  .00012088  00000+0  50477-3 0  9995
2 57204  97.5620 190.9475 0010306  58.5604 301.6639 15.23747169103290
SITRO-AIS 11 (SHEFFER)  
1 57208U 23091AU  25131.17208767  .00012920  00000+0  53642-3 0  9993
2 57208  97.5618 190.9844 0010111  59.2057 301.0174 15.23926660103298
VERONIKA                
1 58261U 23174F   25131.20178136  .00104990  00000+0  11423-2 0  9994
2 58261  97.4141 215.7846 0006863 168.8171 191.3241 15.63074683 84082
ROBUSTA-1E (ENSO)       
1 58470U 23185J   25131.21527993  .00046400  00000+0  74787-3 0  9992
2 58470  97.3759 205.4606 0008836 182.1628 177.9588 15.52756993 80478
SITRO-AIS 30            
1 59053U 24039C   25131.16384335  .01785240  30074-2  13909-2 0  9992
2 59053  97.3952 107.5869 0009348 162.5839 197.5770 16.15505421 67350
SITRO-AIS 32            
1 59057U 24039G   25131.18303310  .03499004  24862-5  11789-2 0  9999
2 59057  97.4052 107.9259 0008029 190.8899 169.2221 16.25627522 67386
SITRO-AIS 36            
1 59059U 24039J   25130.79796328  .13625084  26615-5  26243-3 0  9992
2 59059  97.3845 107.7803 0009379 225.9562 134.0969 16.46804688 67344
SITRO-AIS 49            
1 59060U 24039K   25131.17879278  .02573614  24406-5  13188-2 0  9991
2 59060  97.3959 107.8982 0008393 171.3858 188.7576 16.20428075 67386
SITRO-AIS 25            
1 59066U 24039R   25131.22391603  .00002879  00000+0  24864-3 0  9994
2 59066  95.3750 320.0464 0154409 289.2388  69.2185 14.88876168 64827
SITRO-AIS 26            
1 59067U 24039S   25131.17968223  .00002982  00000+0  25829-3 0  9994
2 59067  95.3749 319.9804 0154634 289.5962  68.8624 14.88726584 64810
SITRO-AIS 27            
1 59068U 24039T   25131.18106027  .00002998  00000+0  25798-3 0  9994
2 59068  95.3750 320.0950 0153911 288.9833  69.4767 14.89048868 64824
SITRO-AIS 28            
1 59071U 24039U   25131.16893633  .00002801  00000+0  24105-3 0  9996
2 59071  95.3753 320.1115 0153752 288.9450  69.5163 14.89089922 64820
GRBBETA                 
1 60237U 24128C   25130.85427656  .00003392  00000+0  26425-3 0  9997
2 60237  61.9909 183.1791 0049488  50.7044 309.8420 15.02365163 45734
OOV-CUBE (TUBSAT-30)    
1 60240U 24128F   25131.13498116  .00002209  00000+0  18853-3 0  9994
2 60240  61.9952 184.6228 0049108  47.5572 312.9654 15.00086159 45744
ROBUSTA-3A (MEDITERRAN*)
1 60243U 24128J   25131.13095582  .00006112  00000+0  44133-3 0  9994
2 60243  61.9878 181.6538 0047969  44.1534 316.3370 15.04228591 45799
LASARSAT                
1 62391U 24247Q   25128.29256820  .00015959  00000+0  63838-3 0  9991
2 62391  44.9884 335.6776 0008426 217.6202 142.4092 15.24947261 21137
CROCUBE                 
1 62394U 24247T   25129.92780680  .00016931  00000+0  67202-3 0  9991
2 62394  44.9870 326.7449 0009228 226.4060 133.6057 15.25161034 21381
